IRIDIUM 26              
1 24903U 97043A   25062.76745324  .00000841  00000+0  27742-3 0  9991
2 24903  86.4020 154.8898 0002363  94.6895 265.4572 14.37007897441600
IRIDIUM 22              
1 24907U 97043E   25062.81979315  .00000763  00000+0  25702-3 0  9997
2 24907  86.4030 158.3111 0002097  94.8482 265.2954 14.35837190441652
DUMMY MASS 1            
1 24925U 97048A   25062.89503464  .00000952  00000+0  10361-3 0  9993
2 24925  86.3412 183.9683 0007792 144.0311 216.1439 14.86833927489485
DUMMY MASS 2            
1 24926U 97048B   25062.83967336  .00001055  00000+0  11590-3 0  9990
2 24926  86.3409 185.5796 0008144 155.6305 204.5307 14.86587249489251
IRIDIUM 29              
1 24944U 97051A   25062.87938663  .00000922  00000+0  30901-3 0  9998
2 24944  86.4023 188.0184 0001826  96.6306 263.5099 14.36318276438151
IRIDIUM 33              
1 24946U 97051C   25062.88651417  .00000625  00000+0  21350-3 0  9998
2 24946  86.3939 187.2678 0009618  68.7579 291.4644 14.34789953437647
IRIDIUM 28              
1 24948U 97051E   25062.85132165  .00000844  00000+0  27684-3 0  9990
2 24948  86.4030 185.6088 0002455  90.7138 269.4341 14.37250476438711
IRIDIUM 36              
1 24967U 97056C   25062.89999132  .00000868  00000+0  28370-3 0  9994
2 24967  86.3978 217.1750 0002036  86.0715 274.0716 14.37448770437097
